IRIDIUM 119             
1 42959U 17061E   23362.64767054  .00000411  00000+0  13954-3 0  9999
2 42959  86.3962  42.0005 0002376  93.7546 266.3921 14.34217214325590
IRIDIUM 107             
1 42960U 17061F   23362.66669759  .00000091  00000+0  25545-4 0  9990
2 42960  86.3961  42.0084 0002221  83.3879 276.7570 14.34217695325601
IRIDIUM 132             
1 42961U 17061G   23362.67303792  .00000409  00000+0  13912-3 0  9991
2 42961  86.3960  41.9914 0002334  85.1475 274.9987 14.34215999325605
IRIDIUM 136             
1 42962U 17061H   23362.63498539  .00000322  00000+0  10781-3 0  9997
2 42962  86.3964  42.0099 0002416  96.8356 263.3115 14.34217472325618
IRIDIUM 139             
1 42963U 17061J   23362.64132648  .00000125  00000+0  37582-4 0  9995
2 42963  86.3964  42.0547 0002231  89.8964 270.2487 14.34216741325627
IRIDIUM 125             
1 42964U 17061K   23362.62864017  .00000420  00000+0  14287-3 0  9990
2 42964  86.3965  42.1044 0002539  91.0057 269.1430 14.34217164325637
IRIDIUM 135             
1 43070U 17083A   23362.95161010  .00000203  00000+0  65317-4 0  9992
2 43070  86.3973 338.6730 0001936  84.7819 275.3598 14.34218496314973
IRIDIUM 138             
1 43071U 17083B   23362.48859791  .00000484  00000+0  16562-3 0  9999
2 43071  86.3963 338.6053 0002462  86.5878 273.5599 14.34213774314897
